[{"OBJECT_NAME":"STARLINK-31236","OBJECT_ID":"2024-017R","EPOCH":"2026-03-09T14:52:05.473056","MEAN_MOTION":15.30170772,"ECCENTRICITY":0.0001583,"INCLINATION":53.1612,"RA_OF_ASC_NODE":204.7704,"ARG_OF_PERICENTER":54.8308,"MEAN_ANOMALY":305.2841,"EPHEMERIS_TYPE":0,"CLASSIFICATION_TYPE":"U","NORAD_CAT_ID":58841,"ELEMENT_SET_NO":999,"REV_AT_EPOCH":12004,"BSTAR":9.8051e-5,"MEAN_MOTION_DOT":2.543e-5,"MEAN_MOTION_DDOT":0},{"OBJECT_NAME":"EDISON-1","OBJECT_ID":"2025-009B","EPOCH":"2026-03-09T19:16:13.822464","MEAN_MOTION":15.29042904,"ECCENTRICITY":0.00043285,"INCLINATION":97.4042,"RA_OF_ASC_NODE":151.6286,"ARG_OF_PERICENTER":306.4185,"MEAN_ANOMALY":53.6655,"EPHEMERIS_TYPE":0,"CLASSIFICATION_TYPE":"U","NORAD_CAT_ID":62610,"ELEMENT_SET_NO":999,"REV_AT_EPOCH":6375,"BSTAR":0.00052814963,"MEAN_MOTION_DOT":0.00014835,"MEAN_MOTION_DDOT":0}]
